NORAD_CAT_ID,OBJECT_NAME,OBJECT_TYPE,EPOCH,MEAN_MOTION,ECCENTRICITY,INCLINATION,RA_OF_ASC_NODE,ARG_OF_PERICENTER,MEAN_ANOMALY,BSTAR,MEAN_MOTION_DOT,MEAN_MOTION_DDOT,TLE_LINE0,TLE_LINE1,TLE_LINE2,SEMIMAJOR_AXIS,PERIOD,APOGEE,PERIGEE,DECAYED
54199.0,STARLINK-5244,PAYLOAD,2023-10-10 11:06:20,15.08853803,0.0001724,53.2182,350.025,94.7518,265.3671,0.00065557,0.00010165,0.0,0 STARLINK-5244,1 54199U 22141AU  23283.46273716  .00010165  00000-0  65557-3 0  9996,2 54199  53.2182 350.0250 0001724  94.7518 265.3671 15.08853803 53193,6917.838,95.437,540.896,538.511,0.0
54199.0,STARLINK-5244,PAYLOAD,2023-10-10 14:17:06,15.08859608,0.0001555,53.2182,349.4289,97.3275,262.7894,0.00066392,0.000103,0.0,0 STARLINK-5244,1 54199U 22141AU  23283.59521444  .00010300  00000-0  66392-3 0  9993,2 54199  53.2182 349.4289 0001555  97.3275 262.7894 15.08859608 52981,6917.82,95.436,540.761,538.61,0.0
54199.0,STARLINK-5244,PAYLOAD,2023-10-11 10:57:08,15.08831319,0.0001594,53.218,345.5669,74.1165,286.0003,0.00017373,2.477e-05,0.0,0 STARLINK-5244,1 54199U 22141AU  23284.45634575  .00002477  00000-0  17373-3 0  9990,2 54199  53.2180 345.5669 0001594  74.1165 286.0003 15.08831319 53343,6917.907,95.438,540.875,538.669,0.0
54199.0,STARLINK-5244,PAYLOAD,2023-10-12 10:47:55,15.08853513,0.0001634,53.2175,341.1063,73.1264,286.9907,0.00085622,0.0001337,0.0,0 STARLINK-5244,1 54199U 22141AU  23285.44994697  .00013370  00000-0  85622-3 0  9990,2 54199  53.2175 341.1063 0001634  73.1264 286.9907 15.08853513 53499,6917.839,95.437,540.834,538.574,0.0
54199.0,STARLINK-5244,PAYLOAD,2023-10-12 15:34:04,15.08868103,0.0001671,53.2175,340.2134,72.2499,287.8675,0.0012478,0.00019642,0.0,0 STARLINK-5244,1 54199U 22141AU  23285.64866319  .00019642  00000-0  12478-2 0  9997,2 54199  53.2175 340.2134 0001671  72.2499 287.8675 15.08868103 53290,6917.794,95.436,540.815,538.504,0.0
54199.0,STARLINK-5244,PAYLOAD,2023-10-13 04:17:09,15.08842552,0.0001709,53.2169,337.8347,86.9326,273.1861,0.0001584,2.234e-05,0.0,0 STARLINK-5244,1 54199U 22141AU  23286.17858654  .00002234  00000-0  15840-3 0  9995,2 54199  53.2169 337.8347 0001709  86.9326 273.1861 15.08842552 53604,6917.873,95.437,540.92,538.555,0.0
54199.0,STARLINK-5244,PAYLOAD,2023-10-13 10:38:42,15.08855179,0.0001605,53.2174,336.6465,80.6744,279.443,0.00065901,0.0001022,0.0,0 STARLINK-5244,1 54199U 22141AU  23286.44354440  .00010220  00000-0  65901-3 0  9996,2 54199  53.2174 336.6465 0001605  80.6744 279.4430 15.08855179 53417,6917.834,95.437,540.809,538.589,0.0
54199.0,STARLINK-5244,PAYLOAD,2023-10-14 10:29:29,15.08852685,0.0001711,53.2173,332.188,79.8253,280.2932,0.00041826,6.377e-05,0.0,0 STARLINK-5244,1 54199U 22141AU  23287.43714319  .00006377  00000-0  41826-3 0  9999,2 54199  53.2173 332.1880 0001711  79.8253 280.2932 15.08852685 53798,6917.842,95.437,540.89,538.523,0.0
54199.0,STARLINK-5244,PAYLOAD,2023-10-14 13:40:15,15.08864795,0.0001666,53.216,331.5917,90.2334,269.8849,0.00081104,0.00012652,0.0,0 STARLINK-5244,1 54199U 22141AU  23287.56961897  .00012652  00000-0  81104-3 0  9994,2 54199  53.2160 331.5917 0001666  90.2334 269.8849 15.08864795 53586,6917.805,95.436,540.822,538.517,0.0
54199.0,STARLINK-5244,PAYLOAD,2023-10-14 20:01:48,15.08826279,0.000366,53.2177,330.3995,79.5872,280.5532,8.2613e-05,1.026e-05,0.0,0 STARLINK-5244,1 54199U 22141AU  23287.83459310  .00001026  00000-0  82613-4 0  9996,2 54199  53.2177 330.3995 0003660  79.5872 280.5532 15.08826279 53629,6917.922,95.438,542.319,537.255,0.0
54199.0,STARLINK-5244,PAYLOAD,2023-10-15 02:23:21,15.08830908,0.0003192,53.2162,329.2093,81.1562,278.9792,0.00032571,4.898e-05,0.0,0 STARLINK-5244,1 54199U 22141AU  23288.09955299  .00004898  00000-0  32571-3 0  9999,2 54199  53.2162 329.2093 0003192  81.1562 278.9792 15.08830908 53896,6917.908,95.438,541.981,537.565,0.0
54199.0,STARLINK-5244,PAYLOAD,2023-10-15 10:20:17,15.08825452,0.0001516,53.2165,327.7262,86.5528,273.5638,4.0354e-05,3.54e-06,0.0,0 STARLINK-5244,1 54199U 22141AU  23288.43075381  .00000354  00000-0  40354-4 0  9994,2 54199  53.2165 327.7262 0001516  86.5528 273.5638 15.08825452 53943,6917.925,95.438,540.839,538.741,0.0
54199.0,STARLINK-5244,PAYLOAD,2023-10-15 19:52:36,15.08825445,0.0001438,53.2162,325.9421,91.2983,268.8173,0.00069337,0.0001076,0.0,0 STARLINK-5244,1 54199U 22141AU  23288.82819969  .00010760  00000-0  69337-3 0  9998,2 54199  53.2162 325.9421 0001438  91.2983 268.8173 15.08825445 53772,6917.925,95.438,540.785,538.795,0.0
54199.0,STARLINK-5244,PAYLOAD,2023-10-16 08:35:41,15.08856727,0.0001429,53.216,323.5619,82.0153,278.1001,0.0012497,0.00019666,0.0,0 STARLINK-5244,1 54199U 22141AU  23289.35811671  .00019666  00000-0  12497-2 0  9997,2 54199  53.2160 323.5619 0001429  82.0153 278.1001 15.08856727 54086,6917.829,95.436,540.683,538.706,0.0
54199.0,STARLINK-5244,PAYLOAD,2023-10-16 10:11:04,15.08863719,0.0001519,53.2162,323.2644,84.7549,275.3617,0.0015258,0.00024094,0.0,0 STARLINK-5244,1 54199U 22141AU  23289.42435574  .00024094  00000-0  15258-2 0  9998,2 54199  53.2162 323.2644 0001519  84.7549 275.3617 15.08863719 53867,6917.808,95.436,540.724,538.622,0.0
54199.0,STARLINK-5244,PAYLOAD,2023-10-17 06:51:04,15.08854387,0.0001395,53.2172,319.3975,85.4569,274.6582,0.00098879,0.0001549,0.0,0 STARLINK-5244,1 54199U 22141AU  23290.28547325  .00015490  00000-0  98879-3 0  9993,2 54199  53.2172 319.3975 0001395  85.4569 274.6582 15.08854387 54228,6917.836,95.437,540.666,538.736,0.0
54199.0,STARLINK-5244,PAYLOAD,2023-10-17 19:34:09,15.08849342,0.000171,53.2162,317.0192,84.2114,275.9073,0.00076738,0.00011949,0.0,0 STARLINK-5244,1 54199U 22141AU  23290.81539341  .00011949  00000-0  76738-3 0  9996,2 54199  53.2162 317.0192 0001710  84.2114 275.9073 15.08849342 54300,6917.852,95.437,540.9,538.534,0.0
54199.0,STARLINK-5244,PAYLOAD,2023-10-18 01:55:42,15.08851879,0.0001863,53.2162,315.8291,91.4736,268.647,0.001049,0.00016452,0.0,0 STARLINK-5244,1 54199U 22141AU  23291.08035441  .00016452  00000-0  10490-2 0  9994,2 54199  53.2162 315.8291 0001863  91.4736 268.6470 15.08851879 54112,6917.844,95.437,540.998,538.42,0.0
54199.0,STARLINK-5244,PAYLOAD,2023-10-18 11:28:01,15.08844797,0.0001764,53.2166,314.0446,90.6148,269.5046,0.0005101,7.841e-05,0.0,0 STARLINK-5244,1 54199U 22141AU  23291.47779510  .00007841  00000-0  51010-3 0  9995,2 54199  53.2166 314.0446 0001764  90.6148 269.5046 15.08844797 54409,6917.866,95.437,540.951,538.51,0.0
54199.0,STARLINK-5244,PAYLOAD,2023-10-19 08:08:01,15.08854421,0.0001866,53.2172,310.1762,106.3773,253.7424,0.00041972,6.401e-05,0.0,0 STARLINK-5244,1 54199U 22141AU  23292.33891126  .00006401  00000-0  41972-3 0  9996,2 54199  53.2172 310.1762 0001866 106.3773 253.7424 15.08854421 54305,6917.836,95.437,540.992,538.41,0.0
54199.0,STARLINK-5244,PAYLOAD,2023-10-20 01:37:16,15.0884392,0.0001623,53.2169,306.9058,103.44,256.6773,0.00019899,2.881e-05,0.0,0 STARLINK-5244,1 54199U 22141AU  23293.06755428  .00002881  00000-0  19899-3 0  9992,2 54199  53.2169 306.9058 0001623 103.4400 256.6773 15.08843920 54646,6917.868,95.437,540.856,538.611,0.0
54199.0,STARLINK-5244,PAYLOAD,2023-10-20 07:58:49,15.08835566,0.000168,53.2174,305.7191,99.8833,260.2349,1.2537e-05,-8.9e-07,0.0,0 STARLINK-5244,1 54199U 22141AU  23293.33251809 -.00000089  00000-0  12537-4 0  9998,2 54199  53.2174 305.7191 0001680  99.8833 260.2349 15.08835566 54689,6917.894,95.438,540.921,538.597,0.0
54199.0,STARLINK-5244,PAYLOAD,2023-10-20 11:09:35,15.08837961,0.0001755,53.2173,305.1223,104.2242,255.8945,-3.4448e-05,-8.36e-06,0.0,0 STARLINK-5244,1 54199U 22141AU  23293.46499636 -.00000836  00000-0 -34448-4 0  9990,2 54199  53.2173 305.1223 0001755 104.2242 255.8945 15.08837961 54476,6917.887,95.438,540.966,538.538,0.0
54199.0,STARLINK-5244,PAYLOAD,2023-10-21 07:49:36,15.08838706,0.0001625,53.2182,301.2609,108.4475,251.6694,2.7517e-05,1.5e-06,0.0,0 STARLINK-5244,1 54199U 22141AU  23294.32612041  .00000150  00000-0  27517-4 0  9999,2 54199  53.2182 301.2609 0001625 108.4475 251.6694 15.08838706 54609,6917.884,95.438,540.874,538.625,0.0
54199.0,STARLINK-5244,PAYLOAD,2023-10-21 17:21:55,15.08841508,0.0001616,53.2187,299.4751,95.9555,264.1621,0.00012107,1.639e-05,0.0,0 STARLINK-5244,1 54199U 22141AU  23294.72355768  .00001639  00000-0  12107-3 0  9994,2 54199  53.2187 299.4751 0001616  95.9555 264.1621 15.08841508 54893,6917.876,95.437,540.859,538.623,0.0
54199.0,STARLINK-5244,PAYLOAD,2023-10-22 09:15:46,15.08846053,0.0001672,53.2181,296.5026,94.1379,265.9804,0.00022132,3.237e-05,0.0,0 STARLINK-5244,1 54199U 22141AU  23295.38595664  .00003237  00000-0  22132-3 0  9993,2 54199  53.2181 296.5026 0001672  94.1379 265.9804 15.08846053 54765,6917.862,95.437,540.884,538.57,0.0
54199.0,STARLINK-5244,PAYLOAD,2023-10-22 17:12:42,15.08835278,0.0001816,53.2178,295.0108,93.1127,267.0073,4.2551e-05,3.89e-06,0.0,0 STARLINK-5244,1 54199U 22141AU  23295.71716174  .00000389  00000-0  42551-4 0  9994,2 54199  53.2178 295.0108 0001816  93.1127 267.0073 15.08835278 55046,6917.895,95.438,541.016,538.504,0.0
54199.0,STARLINK-5244,PAYLOAD,2023-10-23 07:31:11,15.08836783,0.0001675,53.2176,292.338,89.7301,270.3883,-3.4312e-05,-8.34e-06,0.0,0 STARLINK-5244,1 54199U 22141AU  23296.31332343 -.00000834  00000-0 -34312-4 0  9996,2 54199  53.2176 292.3380 0001675  89.7301 270.3883 15.08836783 54906,6917.89,95.438,540.914,538.596,0.0
54199.0,STARLINK-5244,PAYLOAD,2023-10-24 04:11:11,15.08844999,0.0001713,53.2183,288.4745,94.2895,265.8293,8.7535e-05,1.106e-05,0.0,0 STARLINK-5244,1 54199U 22141AU  23297.17444122  .00001106  00000-0  87535-4 0  9996,2 54199  53.2183 288.4745 0001713  94.2895 265.8293 15.08844999 55269,6917.865,95.437,540.915,538.545,0.0
54199.0,STARLINK-5244,PAYLOAD,2023-10-24 08:57:20,15.08852963,0.0001591,53.2174,287.5809,95.41,264.7073,0.00010524,1.388e-05,0.0,0 STARLINK-5244,1 54199U 22141AU  23297.37315489  .00001388  00000-0  10524-3 0  9996,2 54199  53.2174 287.5809 0001591  95.4100 264.7073 15.08852963 55293,6917.841,95.437,540.806,538.605,0.0
